TRANSIT 16 [?]          
1 02807U 67048A   23080.82108931  .00000175  00000+0  25723-3 0  9991
2 02807  89.6669  26.9414 0021993 115.6118 303.5672 13.50374231748202
TRANSIT 17 [?]          
1 02965U 67092A   23081.49251381  .00000169  00000+0  23544-3 0  9999
2 02965  89.2243 101.8656 0045861 247.6171 234.8812 13.53086542736653
TRANSIT 18 [?]          
1 03133U 68012A   23081.11373203  .00000167  00000+0  23820-3 0  9992
2 03133  90.0056 271.7773 0074943 175.7723 307.4670 13.51214822711099
NNSS 19 [?]             
1 04507U 70067A   23080.80876475  .00000176  00000+0  23869-3 0  9998
2 04507  89.9364 237.3708 0170759 301.2680  57.1842 13.50895531587609
NNSS O-20 [?]           
1 06909U 73081A   23080.80366121  .00000330  00000+0  32903-3 0  9998
2 06909  89.8170 272.2052 0155965 185.5554 174.3885 13.70784001667009
TRANSAT [?]             
1 10457U 77106A   23080.87193457  .00000110  00000+0  15909-3 0  9993
2 10457  89.6650 113.4733 0025000 183.0407 350.4515 13.48718918233051
NOVA I [?]              
1 12458U 81044A   23080.87188544  .00000067  00000+0  13768-3 0  9995
2 12458  89.8735 104.5587 0013663 339.9286 196.1594 13.23095711 20033
NOVA 3 [?]              
1 15362U 84110A   23080.92611228  .00000113  00000+0  24920-3 0  9999
2 15362  90.1013  69.6407 0031346 194.2713 222.0821 13.22865233855199
OSCAR 30 [?]            
1 15935U 85066A   23081.53921116  .00000139  00000+0  23572-3 0  9994
2 15935  90.1743  82.7577 0169140  14.7721  99.0230 13.35804378831599
OSCAR 24 [?]            
1 15936U 85066B   23081.24776642  .00000156  00000+0  26678-3 0  9994
2 15936  90.1737  74.6418 0170021  21.4519 349.5788 13.35662764833625
POLAR BEAR [?]          
1 17070U 86088A   23080.93366194  .00000144  00000+0  13939-3 0  9995
2 17070  89.5792 225.0869 0037453 245.6171 226.5423 13.74924573822806
OSCAR 27 [?]            
1 18361U 87080A   23080.71744814  .00000114  00000+0  17514-3 0  9997
2 18361  90.3423  43.5096 0103413 198.7365 160.9965 13.44613367741578
OSCAR 29 [?]            
1 18362U 87080B   23081.45661354  .00000091  00000+0  13805-3 0  9990
2 18362  90.3439  43.8909 0104569 217.7119 259.3660 13.44194426741502
OSCAR 23 [?]            
1 19070U 88033A   23081.22809078  .00000149  00000+0  27969-3 0  9998
2 19070  90.3291 345.6089 0191684  71.5686  39.0821 13.27560939690575
OSCAR 32 [?]            
1 19071U 88033B   23080.27995132  .00000138  00000+0  25926-3 0  9999
2 19071  90.3293 345.6703 0189947  61.9983  51.9617 13.27739205690281
NOVA 11 [?]             
1 19223U 88052A   23081.22275868  .00000065  00000+0  13429-3 0  9996
2 19223  89.9717  80.1794 0028991 238.1852 134.4953 13.22776024678001
OSCAR 25 [?]            
1 19419U 88074A   23080.86794486  .00000120  00000+0  19242-3 0  9999
2 19419  90.0148  18.0824 0095050 208.9650 210.6810 13.42344086692651
OSCAR 31 [?]            
1 19420U 88074B   23080.96664507  .00000090  00000+0  13977-3 0  9997
2 19420  90.0161  18.2892 0093447 202.7287 274.1112 13.42348871693041
